STARLINK-2431           
1 47839U 21018BE  21304.89370021  .00003053  00000-0  12338-3 0  9994
2 47839  53.0527 159.6142 0001606  54.0976 306.0171 15.27870238 37390
STARLINK-2432           
1 47840U 21018BF  21304.73955199  .00000941  00000-0  82065-4 0  9992
2 47840  53.0547 169.1728 0001898  71.9969 288.1226 15.06399378 37235
STARLINK-2433           
1 47841U 21018BG  21304.73586855  .00000473  00000-0  50692-4 0  9993
2 47841  53.0543 169.1875 0001533  75.3017 284.8142 15.06390473 37230
STARLINK-2434           
1 47842U 21018BH  21304.45665053 -.00000130  00000-0  10184-4 0  9994
2 47842  53.0560 200.4540 0001443  90.5329 269.5825 15.06400203 36435
STARLINK-2435           
1 47843U 21018BJ  21304.82754558  .00000651  00000-0  62600-4 0  9992
2 47843  53.0556 193.7893 0001843  67.7274 292.3910 15.06405056 36918
STARLINK-2446           
1 47844U 21018BK  21305.02520123  .00001529  00000-0  12152-3 0  9996
2 47844  53.0549 187.8952 0001775  78.3825 281.7363 15.06401373 36669
STARLINK-2453           
1 47845U 21018BL  21305.04364160 -.00000993  00000-0 -47740-4 0  9994
2 47845  53.0541 187.8242 0001752  73.6107 286.5075 15.06394365 36665
STARLINK-2456           
1 47846U 21018BM  21304.77456892  .00001265  00000-0  10382-3 0  9990
2 47846  53.0544 189.0316 0001991  70.1900 289.9304 15.06394596 37011
YAOGAN-31 K             
1 47854U 21020A   21305.11851345 -.00000066  00000-0  39974-4 0  9991
2 47854  63.4084 275.4485 0023823 340.7026  19.3091 13.45214603 31343
2021-020B               
1 47855U 21020B   21305.14116282 -.00000087  00000-0  47351-5 0  9991
2 47855  63.4106 276.9083 0019500 346.9027  13.1491 13.43817854 31324
YAOGAN-31 L             
1 47856U 21020C   21305.11871515 -.00000072  00000-0  30707-4 0  9996
2 47856  63.4079 276.3196 0023536 340.4733  19.5384 13.45214482 31332
YAOGAN-31 M             
1 47857U 21020D   21305.11873506 -.00000068  00000-0  37138-4 0  9999
2 47857  63.4090 275.4565 0023691 340.9071  19.1059 13.45214350 31348
STARLINK-2258           
1 47860U 21021A   21305.04454800  .00002180  00000-0  16516-3 0  9990
2 47860  53.0574 217.8144 0001781  71.9352 288.1831 15.06407514 35969
STARLINK-2280           
1 47861U 21021B   21304.46540672  .00005110  00000-0  36163-3 0  9995
2 47861  53.0563 205.4163 0001711  67.3801 292.7369 15.06405976 36589
STARLINK-2291           
1 47862U 21021C   21304.97636018  .00002201  00000-0  16660-3 0  9990
2 47862  53.0561 198.1161 0001802  69.3026 290.8156 15.06405992 36240
STARLINK-2293           
1 47863U 21021D   21305.13394083  .00000583  00000-0  58017-4 0  9997
2 47863  53.0548 207.4092 0001763  78.2994 281.8193 15.06403318 36120
STARLINK-2304           
1 47864U 21021E   21304.44464374  .00002932  00000-0  21557-3 0  9990
2 47864  53.0555 200.5034 0001674  76.3110 283.8065 15.06411315 36620
STARLINK-2310           
1 47865U 21021F   21305.10814267 -.00000051  00000-0  15475-4 0  9999
2 47865  53.0549 207.5113 0001613  81.0530 279.0642 15.06391947 36133
STARLINK-2320           
1 47866U 21021G   21305.11182377  .00001768  00000-0  13759-3 0  9998
2 47866  53.0555 207.5026 0001745  66.4068 293.7104 15.06400887 36133
STARLINK-2321           
1 47867U 21021H   21304.97268015 -.00001149  00000-0 -58238-4 0  9993
2 47867  53.0543 198.1236 0001610  59.0516 301.0631 15.06407943 36257
STARLINK-2323           
1 47868U 21021J   21305.06581693 -.00173566  00000-0 -44629-2 0  9995
2 47868  53.0434 149.4082 0001909 315.1068  44.9781 15.39380542 36939
STARLINK-2324           
1 47869U 21021K   21304.83629709  .00002023  00000-0  15462-3 0  9992
2 47869  53.0561 198.7462 0001761  69.5245 290.5933 15.06411018 36815
STARLINK-2326           
1 47870U 21021L   21305.18587662  .00050744  00000-0  34365-2 0  9999
2 47870  53.0567 222.2644 0001519  73.3489 286.7666 15.06015579 35925
STARLINK-2327           
1 47871U 21021M   21305.09799598  .00001888  00000-0  14558-3 0  9991
2 47871  53.0560 197.5713 0001674  81.7204 278.3974 15.06405970 36276
STARLINK-2328           
1 47872U 21021N   21305.08912133 -.00000927  00000-0 -44021-4 0  9997
2 47872  53.0653 157.4653 0001887 134.4199 225.6944 15.05913633 36836
STARLINK-2329           
1 47873U 21021P   21304.81417973  .00001993  00000-0  15261-3 0  9995
2 47873  53.0523 198.8497 0001627  70.5727 289.5438 15.06407826 36691
STARLINK-2330           
1 47874U 21021Q   21304.82761813 -.00200626  00000-0 -11721-1 0  9993
2 47874  53.0412 153.9111 0004222 126.9968 233.1411 15.12410253 37334
STARLINK-2331           
1 47875U 21021R   21304.87223385  .00001615  00000-0  12727-3 0  9990
2 47875  53.0542 208.5751 0001563  79.7088 280.4077 15.06402177 36622
STARLINK-2332           
1 47876U 21021S   21305.12656293  .00002258  00000-0  17039-3 0  9993
2 47876  53.0561 207.4412 0001651  79.5705 280.5470 15.06410265 36139
ISS DEB                 
1 47853U 98067RZ  21304.95512055  .00006361  00000-0  11821-3 0  9991
2 47853  51.6443  25.1209 0002111 233.8908 126.1886 15.50271441 36437
