EPOCH,MEAN_MOTION,ECCENTRICITY,INCLINATION,RA_OF_ASC_NODE,ARG_OF_PERICENTER,MEAN_ANOMALY,NORAD_CAT_ID,SEMIMAJOR_AXIS,PERIOD,APOAPSIS,PERIAPSIS,OBJECT_TYPE,RCS_SIZE,COUNTRY_CODE,LAUNCH_DATE
1635712015.0,15.27870238,0.0001606,53.0527,159.6142,54.0976,306.0171,47839,6860.317,94.249,483.284,481.08,PAYLOAD,LARGE,US,2021.0
1635698697.0,15.06399378,0.0001898,53.0547,169.1728,71.9969,288.1226,47840,6925.35,95.592,548.53,545.901,PAYLOAD,LARGE,US,2021.0
1635698379.0,15.06390473,0.0001533,53.0543,169.1875,75.3017,284.8142,47841,6925.378,95.593,548.304,546.181,PAYLOAD,LARGE,US,2021.0
1635674254.0,15.06400203,0.0001443,53.056,200.454,90.5329,269.5825,47842,6925.348,95.592,548.212,546.214,PAYLOAD,LARGE,US,2021.0
1635706299.0,15.06405056,0.0001843,53.0556,193.7893,67.7274,292.391,47843,6925.333,95.592,548.474,545.922,PAYLOAD,LARGE,US,2021.0
1635723377.0,15.06401373,0.0001775,53.0549,187.8952,78.3825,281.7363,47844,6925.344,95.592,548.439,545.98,PAYLOAD,LARGE,US,2021.0
1635724970.0,15.06394365,0.0001752,53.0541,187.8242,73.6107,286.5075,47845,6925.366,95.592,548.444,546.018,PAYLOAD,LARGE,US,2021.0
1635701722.0,15.06394596,0.0001991,53.0544,189.0316,70.19,289.9304,47846,6925.365,95.592,548.609,545.851,PAYLOAD,LARGE,US,2021.0
1635717322.0,15.50271441,0.0002111,51.6443,25.1209,233.8908,126.1886,47853,6794.07,92.887,417.369,414.501,DEBRIS,LARGE,JPN,1998.0
1635731439.0,13.45214603,0.0023823,63.4084,275.4485,340.7026,19.3091,47854,7468.054,107.046,1107.71,1072.128,PAYLOAD,LARGE,PRC,2021.0
1635733396.0,13.43817854,0.00195,63.4106,276.9083,346.9027,13.1491,47855,7473.228,107.157,1109.666,1080.52,TBA,LARGE,PRC,2021.0
1635731456.0,13.45214482,0.0023536,63.4079,276.3196,340.4733,19.5384,47856,7468.055,107.046,1107.496,1072.343,PAYLOAD,LARGE,PRC,2021.0
1635731458.0,13.4521435,0.0023691,63.409,275.4565,340.9071,19.1059,47857,7468.055,107.046,1107.613,1072.228,PAYLOAD,LARGE,PRC,2021.0
1635725048.0,15.06407514,0.0001781,53.0574,217.8144,71.9352,288.1831,47860,6925.326,95.592,548.424,545.957,PAYLOAD,LARGE,US,2021.0
1635675011.0,15.06405976,0.0001711,53.0563,205.4163,67.3801,292.7369,47861,6925.33,95.592,548.38,546.01,PAYLOAD,LARGE,US,2021.0
1635719157.0,15.06405992,0.0001802,53.0561,198.1161,69.3026,290.8156,47862,6925.33,95.592,548.443,545.947,PAYLOAD,LARGE,US,2021.0
1635732772.0,15.06403318,0.0001763,53.0548,207.4092,78.2994,281.8193,47863,6925.338,95.592,548.424,545.982,PAYLOAD,LARGE,US,2021.0
1635673217.0,15.06411315,0.0001674,53.0555,200.5034,76.311,283.8065,47864,6925.314,95.591,548.338,546.02,PAYLOAD,LARGE,US,2021.0
1635730543.0,15.06391947,0.0001613,53.0549,207.5113,81.053,279.0642,47865,6925.373,95.593,548.355,546.121,PAYLOAD,LARGE,US,2021.0
1635730861.0,15.06400887,0.0001745,53.0555,207.5026,66.4068,293.7104,47866,6925.346,95.592,548.419,546.002,PAYLOAD,LARGE,US,2021.0
1635718839.0,15.06407943,0.000161,53.0543,198.1236,59.0516,301.0631,47867,6925.324,95.592,548.304,546.074,PAYLOAD,LARGE,US,2021.0
1635726886.0,15.39380542,0.0001909,53.0434,149.4082,315.1068,44.9781,47868,6826.077,93.544,449.245,446.639,PAYLOAD,LARGE,US,2021.0
1635707056.0,15.06411018,0.0001761,53.0561,198.7462,69.5245,290.5933,47869,6925.315,95.591,548.399,545.96,PAYLOAD,LARGE,US,2021.0
1635737259.0,15.06015579,0.0001519,53.0567,222.2644,73.3489,286.7666,47870,6926.527,95.617,549.444,547.34,PAYLOAD,MEDIUM,US,2021.0
1635729666.0,15.0640597,0.0001674,53.056,197.5713,81.7204,278.3974,47871,6925.33,95.592,548.355,546.036,PAYLOAD,LARGE,US,2021.0
1635728900.0,15.05913633,0.0001887,53.0653,157.4653,134.4199,225.6944,47872,6926.84,95.623,550.012,547.398,PAYLOAD,LARGE,US,2021.0
1635705145.0,15.06407826,0.0001627,53.0523,198.8497,70.5727,289.5438,47873,6925.325,95.592,548.316,546.063,PAYLOAD,LARGE,US,2021.0
1635706306.0,15.12410253,0.0004222,53.0412,153.9111,126.9968,233.1411,47874,6906.989,95.212,531.77,525.938,PAYLOAD,LARGE,US,2021.0
1635710161.0,15.06402177,0.0001563,53.0542,208.5751,79.7088,280.4077,47875,6925.342,95.592,548.289,546.124,PAYLOAD,LARGE,US,2021.0
1635732135.0,15.06410265,0.0001651,53.0561,207.4412,79.5705,280.547,47876,6925.317,95.591,548.325,546.039,PAYLOAD,LARGE,US,2021.0
